{"fetched_at":"2026-04-02T05:43:41Z","count":6320,"tles":[{"name":"STARLINK-36987","line1":"1 68321U 26059A   26090.66668981 -.00004428  00000+0 -18904-4 0  9994","line2":"2 68321  53.1595 252.7517 0001042  72.0526 136.5845 15.80874983  2577","category":"Starlink"}]}